BEIDOU-2 IGSO-1 (C06)   
1 36828U 10036A   23232.69252826 -.00000115  00000+0  00000+0 0  9995
2 36828  54.2372 172.3049 0036680 189.8082 324.0156  1.00257908 47887
BEIDOU-2 G4 (C04)       
1 37210U 10057A   23232.08938383 -.00000108  00000+0  00000+0 0  9998
2 37210   1.1414  60.0954 0005227 146.5762 313.6043  1.00272452 46932
BEIDOU-2 IGSO-2 (C07)   
1 37256U 10068A   23231.72341201 -.00000170  00000+0  00000+0 0  9996
2 37256  49.4367 284.4956 0032291 211.4665 199.6012  1.00289527 46437
BEIDOU-2 IGSO-3 (C08)   
1 37384U 11013A   23232.29955882 -.00000156  00000+0  00000+0 0  9992
2 37384  60.9164  50.0409 0027685 174.0404 319.7746  1.00286044 45325
BEIDOU-2 IGSO-4 (C09)   
1 37763U 11038A   23232.66776147 -.00000052  00000+0  00000+0 0  9991
2 37763  54.5112 174.8449 0112013 228.3631 261.3932  1.00277352 44298
BEIDOU-2 IGSO-5 (C10)   
1 37948U 11073A   23231.89296315 -.00000126  00000+0  00000+0 0  9995
2 37948  49.5614 284.1610 0094851 220.1206 241.1963  1.00276700 43055
BEIDOU-2 G5 (C05)       
1 38091U 12008A   23232.08929334  .00000062  00000+0  00000+0 0  9998
2 38091   1.6721  68.1484 0002085 167.7146 183.1810  1.00268720 42125
BEIDOU-2 M3 (C11)       
1 38250U 12018A   23231.62664298 -.00000088  00000+0  00000+0 0  9999
2 38250  56.5203 339.3962 0022703 255.0469 104.7321  1.86231279 77057
BEIDOU-2 M4 (C12)       
1 38251U 12018B   23232.09510096 -.00000087  00000+0  00000+0 0  9997
2 38251  56.4308 338.6749 0013634 254.4489 105.4328  1.86231959 77078
BEIDOU-2 M6 (C14)       
1 38775U 12050B   23232.34207822 -.00000004  00000+0  00000+0 0  9991
2 38775  55.6788  97.2703 0012203 338.6297  21.4125  1.86231338 74444
BEIDOU-2 G6 (C02)       
1 38953U 12059A   23232.02896459 -.00000171  00000+0  00000+0 0  9998
2 38953   1.7850  82.0004 0008083 316.1758  24.4309  1.00272364 39699
BEIDOU-3S IGSO-1S (C31) 
1 40549U 15019A   23232.67029625 -.00000157  00000+0  00000+0 0  9999
2 40549  51.1267 307.7465 0040610 195.0391 161.9755  1.00259681 30736
BEIDOU-3S M2S (C57)     
1 40748U 15037A   23231.76104735 -.00000088  00000+0  00000+0 0  9998
2 40748  55.6718 337.2951 0010565 239.2399 120.6895  1.86233279 54899
BEIDOU-3S M1S (C58)     
1 40749U 15037B   23231.49417447 -.00000088  00000+0  00000+0 0  9996
2 40749  55.6750 337.2904 0002603 311.8731  48.1372  1.86233037 54880
BEIDOU-3S IGSO-2S (C56) 
1 40938U 15053A   23232.68459368 -.00000097  00000+0  00000+0 0  9994
2 40938  50.8317 270.9162 0047809 194.2322 205.5330  1.00286944 29001
BEIDOU-2 IGSO-6 (C13)   
1 41434U 16021A   23231.57768080 -.00000134  00000+0  00000+0 0  9995
2 41434  58.7289  48.4258 0046823 217.9757   5.1709  1.00286617 27124
BEIDOU-2 G7 (C03)       
1 41586U 16037A   23232.74449337 -.00000347  00000+0  00000+0 0  9997
2 41586   1.8344  68.2224 0007139 350.2467 288.7951  1.00265845 26444
BEIDOU-3 M1 (C19)       
1 43001U 17069A   23232.10843676 -.00000003  00000+0  00000+0 0  9990
2 43001  55.8299  97.3355 0008366 303.1246  56.8888  1.86231759 39380
BEIDOU-3 M2 (C20)       
1 43002U 17069B   23232.04513462 -.00000003  00000+0  00000+0 0  9991
2 43002  55.8295  97.3733 0006857 332.9175  27.1406  1.86231242 39374
BEIDOU-3 M7 (C27)       
1 43107U 18003A   23231.79600098 -.00000089  00000+0  00000+0 0  9993
2 43107  55.1277 338.0173 0003928  78.7662 281.3100  1.86232603 38138
BEIDOU-3 M8 (C28)       
1 43108U 18003B   23231.73397442 -.00000089  00000+0  00000+0 0  9994
2 43108  55.1208 338.0065 0003560 240.2689 119.7278  1.86231067 38133
BEIDOU-3 M4 (C22)       
1 43207U 18018A   23231.10254565 -.00000002  00000+0  00000+0 0  9994
2 43207  55.7880  97.4686 0005342   7.8151 352.2886  1.86231722 37508
BEIDOU-3 M3 (C21)       
1 43208U 18018B   23231.70614007 -.00000002  00000+0  00000+0 0  9992
2 43208  55.7879  97.4529 0006446 319.5490  40.4975  1.86231572 37517
BEIDOU-3 M9 (C29)       
1 43245U 18029A   23232.46596459 -.00000085  00000+0  00000+0 0  9990
2 43245  55.0224 335.7301 0001117 194.0121 166.0214  1.86232837 36681
BEIDOU-3 M10 (C30)      
1 43246U 18029B   23232.39602529 -.00000086  00000+0  00000+0 0  9990
2 43246  55.0195 335.7607 0002752   5.2047 354.8346  1.86233086 36673
BEIDOU-2 IGSO-7 (C16)   
1 43539U 18057A   23232.70646110 -.00000120  00000+0  00000+0 0  9994
2 43539  55.1216 171.9877 0064601 231.6553 292.1355  1.00288374 18816
BEIDOU-3 M5 (C23)       
1 43581U 18062A   23231.54244979  .00000056  00000+0  00000+0 0  9992
2 43581  54.1812 217.4511 0005671 277.2346  82.6817  1.86232060 34406
BEIDOU-3 M6 (C24)       
1 43582U 18062B   23231.40818225  .00000055  00000+0  00000+0 0  9998
2 43582  54.1809 217.4452 0004845 349.2169  10.7534  1.86229839 34400
BEIDOU-3 M12 (C26)      
1 43602U 18067A   23232.41853318  .00000067  00000+0  00000+0 0  9993
2 43602  54.2680 216.0645 0006823  10.2724 349.7222  1.86231637 33902
BEIDOU-3 M11 (C25)      
1 43603U 18067B   23231.47845495  .00000055  00000+0  00000+0 0  9993
2 43603  54.2653 216.0623 0003988 352.4587   7.5143  1.86231598 33914
BEIDOU-3 M13 (C32)      
1 43622U 18072A   23232.13724462 -.00000003  00000+0  00000+0 0  9998
2 43622  55.7572  96.9736 0005795 301.5370 167.8253  1.86231757 33430
BEIDOU-3 M14 (C33)      
1 43623U 18072B   23232.37660656 -.00000004  00000+0  00000+0 0  9990
2 43623  55.7604  96.9589 0003627 343.3201  16.7609  1.86231753 33446
BEIDOU-3 M16 (C35)      
1 43647U 18078A   23232.00164632 -.00000087  00000+0  00000+0 0  9996
2 43647  54.9186 335.8693 0006072  13.1589 346.8924  1.86227400 32942
BEIDOU-3 M15 (C34)      
1 43648U 18078B   23232.66962456 -.00000085  00000+0  00000+0 0  9997
2 43648  54.9137 335.8503 0003075  29.9169 330.1373  1.86232382 32970
BEIDOU-3 G1 (C59)       
1 43683U 18085A   23232.06646583 -.00000273  00000+0  00000+0 0  9997
2 43683   1.4798 125.4806 0003237 343.9304  22.7297  1.00273676 17708
BEIDOU-3 M17 (C36)      
1 43706U 18093A   23232.28080860  .00000065  00000+0  00000+0 0  9994
2 43706  54.2635 217.3422 0010710 278.6785  81.1821  1.86232130 32305
BEIDOU-3 M18 (C37)      
1 43707U 18093B   23232.14659019  .00000064  00000+0  00000+0 0  9997
2 43707  54.2643 217.3384 0008797 302.3719  57.5245  1.86229938 32316
BEIDOU-3 IGSO-1 (C38)   
1 44204U 19023A   23231.51498442 -.00000191  00000+0  00000+0 0  9997
2 44204  57.1949  48.4094 0023183 194.3129  29.5070  1.00287785 16004
BEIDOU-2 G8 (C01)       
1 44231U 19027A   23232.76160396 -.00000241  00000+0  00000+0 0  9999
2 44231   1.9171  81.1847 0005704 123.2370 183.0305  1.00276616 15733
BEIDOU-3 IGSO-2 (C39)   
1 44337U 19035A   23231.79725597 -.00000132  00000+0  00000+0 0  9996
2 44337  55.1538 167.9296 0032999 197.7874   8.7541  1.00279804 15344
BEIDOU-3 M24 (C46)      
1 44542U 19061A   23232.21843191  .00000065  00000+0  00000+0 0  9996
2 44542  54.4909 217.5709 0008322 335.7328  24.2101  1.86231510 26576
BEIDOU-3 M23 (C45)      
1 44543U 19061B   23232.62120459  .00000070  00000+0  00000+0 0  9993
2 44543  54.4891 217.5267 0006035 318.2727 223.5859  1.86231902 26573
BEIDOU-3 IGSO-3 (C40)   
1 44709U 19073A   23230.57239414 -.00000155  00000+0  00000+0 0  9999
2 44709  56.5609 291.9291 0035164 189.0224 171.0412  1.00287322 14078
BEIDOU-3 M22 (C44)      
1 44793U 19078A   23229.91593542 -.00000094  00000+0  00000+0 0  9990
2 44793  54.7684 335.9104 0005053  22.9696 337.0828  1.86232420 25393
BEIDOU-3 M21 (C43)      
1 44794U 19078B   23232.19434794 -.00000087  00000+0  00000+0 0  9990
2 44794  54.7408 335.8141 0002927  18.8169 341.2300  1.86232800 25433
BEIDOU-3 M19 (C41)      
1 44864U 19090A   23231.78450376 -.00000003  00000+0  00000+0 0  9998
2 44864  55.6922  97.1739 0015826 277.2137   1.8878  1.86232018 25004
BEIDOU-3 M20 (C42)      
1 44865U 19090B   23231.55148338 -.00000003  00000+0  00000+0 0  9996
2 44865  55.6940  97.2146 0013837 292.2457 280.4138  1.86231966 24981
BEIDOU-3 G2 (C60)       
1 45344U 20017A   23231.79022431 -.00000137  00000+0  00000+0 0  9999
2 45344   2.0385  15.3313 0003184 141.7104 175.3673  1.00272075 12919
BEIDOU-3 G3 (C61)       
1 45807U 20040A   23232.13762494 -.00000348  00000+0  00000+0 0  9992
2 45807   0.6301 340.4746 0004882 352.2839 155.5578  1.00269824 11738
BEIDOU-3 G4             
1 56564U 23066A   23232.41671337 -.00000107  00000+0  00000+0 0  9994
2 56564   2.8833 288.8572 0007203 205.5211 144.0249  1.00274027  1053
